NORAD_CAT_ID,OBJECT_NAME,OBJECT_TYPE,EPOCH,MEAN_MOTION,ECCENTRICITY,INCLINATION,RA_OF_ASC_NODE,ARG_OF_PERICENTER,MEAN_ANOMALY,BSTAR,MEAN_MOTION_DOT,MEAN_MOTION_DDOT,TLE_LINE0,TLE_LINE1,TLE_LINE2,SEMIMAJOR_AXIS,PERIOD,APOGEE,PERIGEE,DECAYED
51788.0,STARLINK-3641,PAYLOAD,2023-12-13 10:36:22,15.08840094,0.0001193,53.2179,57.8908,88.7673,271.3456,2.9278e-05,1.78e-06,0.0,0 STARLINK-3641,1 51788U 22017W   23347.44192228  .00000178  00000-0  29278-4 0  9990,2 51788  53.2179  57.8908 0001193  88.7673 271.3456 15.08840094100545,6917.88,95.438,540.57,538.92,0.0
51788.0,STARLINK-3641,PAYLOAD,2023-12-13 12:11:45,15.08841618,0.0001193,53.218,57.5941,82.5982,277.5146,3.8345e-05,3.22e-06,0.0,0 STARLINK-3641,1 51788U 22017W   23347.50816134  .00000322  00000-0  38345-4 0  9992,2 51788  53.2180  57.5941 0001193  82.5982 277.5146 15.08841618100554,6917.875,95.437,540.566,538.915,0.0
51788.0,STARLINK-3641,PAYLOAD,2023-12-14 12:02:32,15.0881716,0.0001458,53.2182,53.1354,70.7137,289.4013,0.00038452,5.833e-05,0.0,0 STARLINK-3641,1 51788U 22017W   23348.50176556  .00005833  00000-0  38452-3 0  9990,2 51788  53.2182  53.1354 0001458  70.7137 289.4013 15.08817160100708,6917.95,95.439,540.824,538.807,0.0
51788.0,STARLINK-3641,PAYLOAD,2023-12-15 11:53:19,15.08843219,0.0001711,53.2191,48.6744,62.5208,297.5958,3.7506e-05,3.09e-06,0.0,0 STARLINK-3641,1 51788U 22017W   23349.49536267  .00000309  00000-0  37506-4 0  9991,2 51788  53.2191  48.6744 0001711  62.5208 297.5958 15.08843219100858,6917.871,95.437,540.919,538.552,0.0
51788.0,STARLINK-3641,PAYLOAD,2023-12-16 10:08:43,15.08836936,0.0001746,53.2186,44.5123,72.171,287.9473,1.5944e-05,-3.4e-07,0.0,0 STARLINK-3641,1 51788U 22017W   23350.42272797 -.00000034  00000-0  15944-4 0  9999,2 51788  53.2186  44.5123 0001746  72.1710 287.9473 15.08836936100999,6917.89,95.438,540.963,538.547,0.0
51788.0,STARLINK-3641,PAYLOAD,2023-12-17 09:59:30,15.08840487,0.0001566,53.2177,40.0523,73.2197,286.8967,-6.6893e-07,-2.99e-06,0.0,0 STARLINK-3641,1 51788U 22017W   23351.41632713 -.00000299  00000-0 -66893-6 0  9992,2 51788  53.2177  40.0523 0001566  73.2197 286.8967 15.08840487101145,6917.879,95.438,540.827,538.661,0.0
51788.0,STARLINK-3641,PAYLOAD,2023-12-18 09:50:16,15.08848511,0.0001633,53.2184,35.5879,101.9927,258.1249,0.00014552,2.029e-05,0.0,0 STARLINK-3641,1 51788U 22017W   23352.40991471  .00002029  00000-0  14552-3 0  9994,2 51788  53.2184  35.5879 0001633 101.9927 258.1249 15.08848511101298,6917.854,95.437,540.849,538.59,0.0
51788.0,STARLINK-3641,PAYLOAD,2023-12-19 09:41:04,15.08837281,0.000147,53.2187,31.126,110.2731,249.8419,-9.3185e-06,-4.36e-06,0.0,0 STARLINK-3641,1 51788U 22017W   23353.40352792 -.00000436  00000-0 -93185-5 0  9995,2 51788  53.2187  31.1260 0001470 110.2731 249.8419 15.08837281101447,6917.889,95.438,540.771,538.737,0.0
51788.0,STARLINK-3641,PAYLOAD,2023-12-20 07:56:29,15.08837892,0.0001457,53.2185,26.9659,105.8582,254.2571,-9.55e-05,-1.807e-05,0.0,0 STARLINK-3641,1 51788U 22017W   23354.33089426 -.00001807  00000-0 -95500-4 0  9994,2 51788  53.2185  26.9659 0001457 105.8582 254.2571 15.08837892101580,6917.887,95.438,540.76,538.744,0.0
51788.0,STARLINK-3641,PAYLOAD,2023-12-21 09:22:38,15.08844112,0.0001235,53.2175,22.2063,81.1337,278.9795,0.00013447,1.853e-05,0.0,0 STARLINK-3641,1 51788U 22017W   23355.39072807  .00001853  00000-0  13447-3 0  9994,2 51788  53.2175  22.2063 0001235  81.1337 278.9795 15.08844112101747,6917.868,95.437,540.587,538.878,0.0
51788.0,STARLINK-3641,PAYLOAD,2023-12-22 09:13:26,15.08841174,0.0001608,53.2188,17.7477,79.6679,280.4495,8.0052e-05,9.86e-06,0.0,0 STARLINK-3641,1 51788U 22017W   23356.38433676  .00000986  00000-0  80052-4 0  9992,2 51788  53.2188  17.7477 0001608  79.6679 280.4495 15.08841174101890,6917.877,95.437,540.854,538.629,0.0
51788.0,STARLINK-3641,PAYLOAD,2023-12-23 10:39:36,15.0884891,0.0001855,53.2203,12.9798,81.1879,278.9323,5.2007e-05,5.4e-06,0.0,0 STARLINK-3641,1 51788U 22017W   23357.44417330  .00000540  00000-0  52007-4 0  9994,2 51788  53.2203  12.9798 0001855  81.1879 278.9323 15.08848910102051,6917.853,95.437,541.001,538.435,0.0
51788.0,STARLINK-3641,PAYLOAD,2023-12-24 00:58:05,15.08839514,0.0001518,53.2188,10.3052,105.4077,254.7083,1.3266e-05,-7.7e-07,0.0,0 STARLINK-3641,1 51788U 22017W   23358.04033975 -.00000077  00000-0  13266-4 0  9990,2 51788  53.2188  10.3052 0001518 105.4077 254.7083 15.08839514102149,6917.882,95.438,540.797,538.697,0.0
51788.0,STARLINK-3641,PAYLOAD,2023-12-24 07:19:37,15.08846942,0.0001806,53.2182,9.123,103.444,256.6753,6.4873e-05,7.45e-06,0.0,0 STARLINK-3641,1 51788U 22017W   23358.30529328  .00000745  00000-0  64873-4 0  9992,2 51788  53.2182   9.1230 0001806 103.4440 256.6753 15.08846942102181,6917.859,95.437,540.974,538.475,0.0
51788.0,STARLINK-3641,PAYLOAD,2023-12-25 03:59:38,15.08829962,0.0001843,53.218,5.2581,125.123,234.9935,0.00020751,3.015e-05,0.0,0 STARLINK-3641,1 51788U 22017W   23359.16641759  .00003015  00000-0  20751-3 0  9999,2 51788  53.2180   5.2581 0001843 125.1230 234.9935 15.08829962102313,6917.911,95.438,541.051,538.501,0.0
51788.0,STARLINK-3641,PAYLOAD,2023-12-25 10:21:10,15.0884852,0.0001753,53.219,4.0622,99.955,260.164,4.8756e-05,4.88e-06,0.0,0 STARLINK-3641,1 51788U 22017W   23359.43137233  .00000488  00000-0  48756-4 0  9993,2 51788  53.2190   4.0622 0001753  99.9550 260.1640 15.08848520102359,6917.854,95.437,540.932,538.507,0.0
51788.0,STARLINK-3641,PAYLOAD,2023-12-26 03:50:25,15.08844067,0.0002081,53.2174,0.79,125.6876,234.431,-3.2421e-05,-8.04e-06,0.0,0 STARLINK-3641,1 51788U 22017W   23360.16001578 -.00000804  00000-0 -32421-4 0  9993,2 51788  53.2174   0.7900 0002081 125.6876 234.4310 15.08844067102468,6917.868,95.437,541.173,538.293,0.0
51788.0,STARLINK-3641,PAYLOAD,2023-12-26 07:01:12,15.08839118,0.0001799,53.2183,0.2011,107.4665,252.6524,2.7252e-05,1.46e-06,0.0,0 STARLINK-3641,1 51788U 22017W   23360.29250026  .00000146  00000-0  27252-4 0  9994,2 51788  53.2183   0.2011 0001799 107.4665 252.6524 15.08839118102487,6917.883,95.438,540.993,538.504,0.0
51788.0,STARLINK-3641,PAYLOAD,2023-12-27 03:41:13,15.08837542,0.0001614,53.2182,356.3335,107.8787,252.2382,-9.9449e-06,-4.46e-06,0.0,0 STARLINK-3641,1 51788U 22017W   23361.15362404 -.00000446  00000-0 -99449-5 0  9997,2 51788  53.2182 356.3335 0001614 107.8787 252.2382 15.08837542102617,6917.888,95.438,540.869,538.636,0.0
51788.0,STARLINK-3641,PAYLOAD,2023-12-27 06:51:58,15.08850282,0.0001736,53.2185,355.7417,125.0759,235.0397,0.0001001,1.306e-05,0.0,0 STARLINK-3641,1 51788U 22017W   23361.28609322  .00001306  00000-0  10010-3 0  9993,2 51788  53.2185 355.7417 0001736 125.0759 235.0397 15.08850282102633,6917.849,95.437,540.915,538.513,0.0
51788.0,STARLINK-3641,PAYLOAD,2023-12-28 03:32:00,15.08834741,0.0002056,53.2185,351.8762,120.5889,239.5306,-4.9363e-05,-1.074e-05,0.0,0 STARLINK-3641,1 51788U 22017W   23362.14722928 -.00001074  00000-0 -49363-4 0  9995,2 51788  53.2185 351.8762 0002056 120.5889 239.5306 15.08834741102768,6917.896,95.438,541.184,538.339,0.0
51788.0,STARLINK-3641,PAYLOAD,2023-12-28 05:07:23,15.08836933,0.0001511,53.2185,351.5783,104.8926,255.2234,9.0886e-05,1.159e-05,0.0,0 STARLINK-3641,1 51788U 22017W   23362.21346545  .00001159  00000-0  90886-4 0  9998,2 51788  53.2185 351.5783 0001511 104.8926 255.2234 15.08836933102771,6917.89,95.438,540.8,538.709,0.0
51788.0,STARLINK-3641,PAYLOAD,2023-12-29 08:08:56,15.08838833,0.0001433,53.2183,346.5195,102.1358,257.9794,0.00012128,1.643e-05,0.0,0 STARLINK-3641,1 51788U 22017W   23363.33954586  .00001643  00000-0  12128-3 0  9992,2 51788  53.2183 346.5195 0001433 102.1358 257.9794 15.08838833102943,6917.884,95.438,540.74,538.758,0.0
51788.0,STARLINK-3641,PAYLOAD,2023-12-30 06:24:20,15.08848165,0.0001506,53.2186,342.3558,93.5088,266.6076,0.000137,1.894e-05,0.0,0 STARLINK-3641,1 51788U 22017W   23364.26689975  .00001894  00000-0  13700-3 0  9997,2 51788  53.2186 342.3558 0001506  93.5088 266.6076 15.08848165103082,6917.855,95.437,540.762,538.679,0.0
51788.0,STARLINK-3641,PAYLOAD,2023-12-30 22:18:11,15.08846092,0.0001674,53.2188,339.3905,81.7503,278.3679,5.3686e-05,5.67e-06,0.0,0 STARLINK-3641,1 51788U 22017W   23364.92930418  .00000567  00000-0  53686-4 0  9995,2 51788  53.2188 339.3905 0001674  81.7503 278.3679 15.08846092103180,6917.862,95.437,540.885,538.569,0.0
51788.0,STARLINK-3641,PAYLOAD,2023-12-31 03:04:21,15.08843842,0.0001413,53.2184,338.4924,101.8468,258.2683,5.3536e-05,5.64e-06,0.0,0 STARLINK-3641,1 51788U 22017W   23365.12802298  .00000564  00000-0  53536-4 0  9993,2 51788  53.2184 338.4924 0001413 101.8468 258.2683 15.08843842103218,6917.869,95.437,540.711,538.756,0.0
51788.0,STARLINK-3641,PAYLOAD,2023-12-31 22:08:59,15.08840754,0.0001483,53.2178,334.9246,103.6039,256.5119,-6.0908e-05,-1.257e-05,0.0,0 STARLINK-3641,1 51788U 22017W   23365.92290891 -.00001257  00000-0 -60908-4 0  9994,2 51788  53.2178 334.9246 0001483 103.6039 256.5119 15.08840754103337,6917.878,95.438,540.769,538.717,0.0
51788.0,STARLINK-3641,PAYLOAD,2024-01-01 02:55:08,15.08835191,0.0001708,53.2177,334.0328,115.1787,244.9382,3.2341e-05,2.27e-06,0.0,0 STARLINK-3641,1 51788U 22017W   24001.12162832  .00000227  00000-0  32341-4 0  9991,2 51788  53.2177 334.0328 0001708 115.1787 244.9382 15.08835191103361,6917.895,95.438,540.942,538.579,0.0
51788.0,STARLINK-3641,PAYLOAD,2024-01-01 04:30:31,15.08842877,0.0001445,53.2178,333.7355,95.6862,264.4295,-5.1999e-05,-1.115e-05,0.0,0 STARLINK-3641,1 51788U 22017W   24001.18786755 -.00001115  00000-0 -51999-4 0  9992,2 51788  53.2178 333.7355 0001445  95.6862 264.4295 15.08842877103372,6917.872,95.437,540.736,538.737,0.0
51788.0,STARLINK-3641,PAYLOAD,2024-01-01 21:59:45,15.088433,0.0001463,53.2178,330.4644,91.435,268.6809,5.5236e-05,5.91e-06,0.0,0 STARLINK-3641,1 51788U 22017W   24001.91650374  .00000591  00000-0  55236-4 0  9993,2 51788  53.2178 330.4644 0001463  91.4350 268.6809 15.08843300103484,6917.87,95.437,540.747,538.723,0.0
